NORAD_CAT_ID,OBJECT_NAME,OBJECT_TYPE,EPOCH,MEAN_MOTION,ECCENTRICITY,INCLINATION,RA_OF_ASC_NODE,ARG_OF_PERICENTER,MEAN_ANOMALY,BSTAR,MEAN_MOTION_DOT,MEAN_MOTION_DDOT,TLE_LINE0,TLE_LINE1,TLE_LINE2,SEMIMAJOR_AXIS,PERIOD,APOGEE,PERIGEE,DECAYED
55770.0,STARLINK-5557,PAYLOAD,2023-05-21 18:15:49,15.6992489,0.0003503,70.0,293.0773,270.4422,89.6372,1.1298e-05,1.146e-05,0.0,0 STARLINK-5557,1 55770U 23028AF  23141.76098813  .00001146  00000-0  11298-4 0  9999,2 55770  70.0000 293.0773 0003503 270.4422  89.6372 15.69924890 13075,6737.249,91.724,361.474,356.754,0.0
55770.0,STARLINK-5557,PAYLOAD,2023-05-22 03:26:19,15.69939456,0.0003316,70.002,292.003,270.1047,89.9769,3.9856e-05,4.585e-05,0.0,0 STARLINK-5557,1 55770U 23028AF  23142.14328144  .00004585  00000-0  39856-4 0  9995,2 55770  70.0020 292.0030 0003316 270.1047  89.9769 15.69939456 13127,6737.207,91.723,361.306,356.838,0.0
55770.0,STARLINK-5557,PAYLOAD,2023-05-22 11:05:05,15.69932264,0.0003098,70.002,291.1074,270.3305,89.7536,3.0573e-05,3.466e-05,0.0,0 STARLINK-5557,1 55770U 23028AF  23142.46186806  .00003466  00000-0  30573-4 0  9991,2 55770  70.0020 291.1074 0003098 270.3305  89.7536 15.69932264 13187,6737.228,91.724,361.18,357.006,0.0
55770.0,STARLINK-5557,PAYLOAD,2023-05-22 12:36:50,15.6992933,0.0003196,70.0007,290.9278,269.28,90.8029,1.441e-05,1.521e-05,0.0,0 STARLINK-5557,1 55770U 23028AF  23142.52558541  .00001521  00000-0  14410-4 0  9999,2 55770  70.0007 290.9278 0003196 269.2800  90.8029 15.69929330 13181,6737.236,91.724,361.254,356.948,0.0
55770.0,STARLINK-5557,PAYLOAD,2023-05-22 20:15:36,15.69922895,0.000307,70.0013,290.0323,268.4828,91.6016,-4.5388e-07,-2.67e-06,0.0,0 STARLINK-5557,1 55770U 23028AF  23142.84417258 -.00000267  00000-0 -45388-6 0  9991,2 55770  70.0013 290.0323 0003070 268.4828  91.6016 15.69922895 13243,6737.255,91.724,361.188,357.051,0.0
55770.0,STARLINK-5557,PAYLOAD,2023-05-23 16:08:22,15.69928242,0.0003284,69.9991,287.7044,268.6218,91.4601,3.0591e-05,3.468e-05,0.0,0 STARLINK-5557,1 55770U 23028AF  23143.67248378  .00003468  00000-0  30591-4 0  9990,2 55770  69.9991 287.7044 0003284 268.6218  91.4601 15.69928242 13363,6737.239,91.724,361.317,356.892,0.0
55770.0,STARLINK-5557,PAYLOAD,2023-05-23 19:11:52,15.6993039,0.0003616,69.9994,287.3472,270.3593,89.7188,2.6159e-05,2.935e-05,0.0,0 STARLINK-5557,1 55770U 23028AF  23143.79991613  .00002935  00000-0  26159-4 0  9993,2 55770  69.9994 287.3472 0003616 270.3593  89.7188 15.69930390 13392,6737.233,91.724,361.534,356.662,0.0
55770.0,STARLINK-5557,PAYLOAD,2023-05-24 02:50:39,15.69918992,0.0003164,69.9986,286.4505,267.9464,92.1369,-1.668e-05,-2.217e-05,0.0,0 STARLINK-5557,1 55770U 23028AF  23144.11851604 -.00002217  00000-0 -16680-4 0  9998,2 55770  69.9986 286.4505 0003164 267.9464  92.1369 15.69918992 13435,6737.266,91.724,361.262,356.999,0.0
55770.0,STARLINK-5557,PAYLOAD,2023-05-25 18:36:11,15.69931917,0.0003233,69.9987,281.7922,264.2396,95.8431,2.7948e-06,1.23e-06,0.0,0 STARLINK-5557,1 55770U 23028AF  23145.77513632  .00000123  00000-0  27948-5 0  9999,2 55770  69.9987 281.7922 0003233 264.2396  95.8431 15.69931917 13698,6737.229,91.724,361.272,356.916,0.0
55770.0,STARLINK-5557,PAYLOAD,2023-05-26 09:53:43,15.69922339,0.0003346,69.9978,280.0016,275.3571,84.7243,-5.5498e-06,-8.8e-06,0.0,0 STARLINK-5557,1 55770U 23028AF  23146.41231063 -.00000880  00000-0 -55498-5 0  9999,2 55770  69.9978 280.0016 0003346 275.3571  84.7243 15.69922339 13794,6737.256,91.724,361.375,356.867,0.0
55770.0,STARLINK-5557,PAYLOAD,2023-05-26 12:57:13,15.69923684,0.0003163,69.9988,279.6402,275.0155,85.0679,-2.9944e-06,-5.73e-06,0.0,0 STARLINK-5557,1 55770U 23028AF  23146.53974456 -.00000573  00000-0 -29944-5 0  9998,2 55770  69.9988 279.6402 0003163 275.0155  85.0679 15.69923684 13825,6737.252,91.724,361.248,356.986,0.0
55770.0,STARLINK-5557,PAYLOAD,2023-05-26 19:04:14,15.69926111,0.0003321,69.9986,278.9245,276.6751,83.4067,7.7154e-06,7.15e-06,0.0,0 STARLINK-5557,1 55770U 23028AF  23146.79460834  .00000715  00000-0  77154-5 0  9998,2 55770  69.9986 278.9245 0003321 276.6751  83.4067 15.69926111 13860,6737.245,91.724,361.348,356.873,0.0
55770.0,STARLINK-5557,PAYLOAD,2023-05-27 10:21:45,15.69927927,0.000348,69.9986,277.1335,277.5055,82.5745,3.9705e-06,2.65e-06,0.0,0 STARLINK-5557,1 55770U 23028AF  23147.43177510  .00000265  00000-0  39705-5 0  9996,2 55770  69.9986 277.1335 0003480 277.5055  82.5745 15.69927927 13953,6737.24,91.724,361.45,356.761,0.0
55770.0,STARLINK-5557,PAYLOAD,2023-05-27 18:00:30,15.69931481,0.0003581,69.9978,276.2379,272.725,87.3536,3.9004e-06,2.56e-06,0.0,0 STARLINK-5557,1 55770U 23028AF  23147.75035496  .00000256  00000-0  39004-5 0  9999,2 55770  69.9978 276.2379 0003581 272.7250  87.3536 15.69931481 14017,6737.23,91.724,361.508,356.682,0.0
55770.0,STARLINK-5557,PAYLOAD,2023-05-28 01:39:17,15.6991448,0.0003631,69.9972,275.3428,277.487,82.5913,1.4197e-05,1.494e-05,0.0,0 STARLINK-5557,1 55770U 23028AF  23148.06894724  .00001494  00000-0  14197-4 0  9991,2 55770  69.9972 275.3428 0003631 277.4870  82.5913 15.69914480 14052,6737.279,91.725,361.59,356.697,0.0
55770.0,STARLINK-5557,PAYLOAD,2023-05-28 10:49:47,15.69925657,0.0003494,69.9979,274.2676,273.7834,86.2962,2.2553e-06,5.8e-07,0.0,0 STARLINK-5557,1 55770U 23028AF  23148.45124421  .00000058  00000-0  22553-5 0  9995,2 55770  69.9979 274.2676 0003494 273.7834  86.2962 15.69925657 14118,6737.247,91.724,361.466,356.758,0.0
55770.0,STARLINK-5557,PAYLOAD,2023-05-28 18:28:32,15.69932179,0.0003429,69.9977,273.372,273.0852,86.9952,8.1181e-06,7.64e-06,0.0,0 STARLINK-5557,1 55770U 23028AF  23148.76982163  .00000764  00000-0  81181-5 0  9990,2 55770  69.9977 273.3720 0003429 273.0852  86.9952 15.69932179 14165,6737.228,91.724,361.403,356.783,0.0
55770.0,STARLINK-5557,PAYLOAD,2023-05-29 09:46:04,15.69918337,0.0003196,69.9985,271.5812,263.1443,96.939,-6.4364e-06,-9.86e-06,0.0,0 STARLINK-5557,1 55770U 23028AF  23149.40700153 -.00000986  00000-0 -64364-5 0  9991,2 55770  69.9985 271.5812 0003196 263.1443  96.9390 15.69918337 14261,6737.268,91.725,361.286,356.979,0.0
55770.0,STARLINK-5557,PAYLOAD,2023-05-29 11:17:49,15.69920328,0.000295,69.9989,271.4019,255.1729,104.914,-5.579e-06,-8.83e-06,0.0,0 STARLINK-5557,1 55770U 23028AF  23149.47071656 -.00000883  00000-0 -55790-5 0  9996,2 55770  69.9989 271.4019 0002950 255.1729 104.9140 15.69920328 14286,6737.262,91.724,361.114,357.139,0.0
55770.0,STARLINK-5557,PAYLOAD,2023-05-29 17:24:50,15.69923213,0.0003172,69.9995,270.6872,261.2317,98.8519,-2.247e-06,-4.83e-06,0.0,0 STARLINK-5557,1 55770U 23028AF  23149.72558154 -.00000483  00000-0 -22470-5 0  9992,2 55770  69.9995 270.6872 0003172 261.2317  98.8519 15.69923213 14321,6737.254,91.724,361.256,356.982,0.0
55770.0,STARLINK-5557,PAYLOAD,2023-05-30 01:03:35,15.69923828,0.0003002,69.9995,269.7909,266.6749,93.4103,1.5797e-05,1.687e-05,0.0,0 STARLINK-5557,1 55770U 23028AF  23150.04416231  .00001687  00000-0  15797-4 0  9996,2 55770  69.9995 269.7909 0003002 266.6749  93.4103 15.69923828 14367,6737.252,91.724,361.139,357.094,0.0
55770.0,STARLINK-5557,PAYLOAD,2023-05-30 11:45:51,15.69929298,0.0003257,69.9989,268.5375,264.1703,95.9121,1.3195e-05,1.374e-05,0.0,0 STARLINK-5557,1 55770U 23028AF  23150.49017599  .00001374  00000-0  13195-4 0  9992,2 55770  69.9989 268.5375 0003257 264.1703  95.9121 15.69929298 14442,6737.236,91.724,361.296,356.907,0.0
55770.0,STARLINK-5557,PAYLOAD,2023-05-30 16:21:06,15.69929418,0.0003264,69.9989,268.0,265.249,94.8333,1.2273e-05,1.264e-05,0.0,0 STARLINK-5557,1 55770U 23028AF  23150.68132629  .00001264  00000-0  12273-4 0  9999,2 55770  69.9989 268.0000 0003264 265.2490  94.8333 15.69929418 14475,6737.236,91.724,361.3,356.902,0.0
55770.0,STARLINK-5557,PAYLOAD,2023-05-31 10:42:08,15.69925063,0.0003322,69.9985,265.8501,260.7728,99.3092,9.9149e-06,9.8e-06,0.0,0 STARLINK-5557,1 55770U 23028AF  23151.44593111  .00000980  00000-0  99149-5 0  9993,2 55770  69.9985 265.8501 0003322 260.7728  99.3092 15.69925063 14587,6737.248,91.724,361.352,356.875,0.0
55770.0,STARLINK-5557,PAYLOAD,2023-05-31 16:49:08,15.69925381,0.0003317,69.9985,265.1335,261.1658,98.9162,9.0665e-06,8.78e-06,0.0,0 STARLINK-5557,1 55770U 23028AF  23151.70079754  .00000878  00000-0  90665-5 0  9994,2 55770  69.9985 265.1335 0003317 261.1658  98.9162 15.69925381 14638,6737.247,91.724,361.347,356.878,0.0
55770.0,STARLINK-5557,PAYLOAD,2023-06-01 09:38:25,15.69924746,0.0003241,69.9984,263.1608,268.3141,91.7683,4.1075e-06,2.81e-06,0.0,0 STARLINK-5557,1 55770U 23028AF  23152.40168226  .00000281  00000-0  41075-5 0  9994,2 55770  69.9984 263.1608 0003241 268.3141  91.7683 15.69924746 14745,6737.249,91.724,361.298,356.931,0.0
55770.0,STARLINK-5557,PAYLOAD,2023-06-02 00:55:56,15.69923282,0.0003319,69.9987,261.3694,269.4339,90.6476,7.6378e-06,7.06e-06,0.0,0 STARLINK-5557,1 55770U 23028AF  23153.03884975  .00000706  00000-0  76378-5 0  9996,2 55770  69.9987 261.3694 0003319 269.4339  90.6476 15.69923282 14832,6737.253,91.724,361.355,356.882,0.0
55770.0,STARLINK-5557,PAYLOAD,2023-06-02 10:06:27,15.69919562,0.0003191,69.9987,260.2942,267.1033,92.9797,4.26e-06,2.99e-06,0.0,0 STARLINK-5557,1 55770U 23028AF  23153.42115350  .00000299  00000-0  42600-5 0  9991,2 55770  69.9987 260.2942 0003191 267.1033  92.9797 15.69919562 14905,6737.264,91.724,361.279,356.979,0.0
55770.0,STARLINK-5557,PAYLOAD,2023-06-02 16:13:27,15.69924179,0.0003097,69.999,259.5779,268.1303,91.9538,9.7712e-06,9.62e-06,0.0,0 STARLINK-5557,1 55770U 23028AF  23153.67601714  .00000962  00000-0  97712-5 0  9993,2 55770  69.9990 259.5779 0003097 268.1303  91.9538 15.69924179 14940,6737.251,91.724,361.202,357.029,0.0
55770.0,STARLINK-5557,PAYLOAD,2023-06-03 10:34:29,15.69923142,0.0003057,69.9992,257.4294,264.4143,95.6704,1.019e-05,1.013e-05,0.0,0 STARLINK-5557,1 55770U 23028AF  23154.44061939  .00001013  00000-0  10190-4 0  9990,2 55770  69.9992 257.4294 0003057 264.4143  95.6704 15.69923142 15056,6737.254,91.724,361.178,357.059,0.0
